{"type": "FeatureCollection", "features": [ {"type": "Feature", "properties": {"norad_id": 41335, "name": "SENTINEL-3A", "group": "resource", "lat": -67.40043788709097, "lon": -155.79712462362767, "alt_km": 810.516183475368, "timestamp": "2025-12-06T11:28:10.686534+00:00", "meta": {"OBJECT_NAME": "SENTINEL-3A", "OBJECT_ID": "2016-011A", "EPOCH": "2025-12-05T22:31:27.854112", "MEAN_MOTION": 14.26742549, "ECCENTRICITY": 9.736e-05, "INCLINATION": 98.6216, "RA_OF_ASC_NODE": 45.0477, "ARG_OF_PERICENTER": 91.9298, "MEAN_ANOMALY": 268.1993, "EPHEMERIS_TYPE": 0, "CLASSIFICATION_TYPE": "U", "NORAD_CAT_ID": 41335, "ELEMENT_SET_NO": 999, "REV_AT_EPOCH": 51050, "BSTAR": 0.00014120481, "MEAN_MOTION_DOT": 2.98e-06, "MEAN_MOTION_DDOT": 0}, "tle": {"line1": "1 41335U 16011A   25339.93851683  .00000298  00000+0  14120-3 0  9999", "line2": "2 41335  98.6216  45.0477 0000973  91.9298 268.1993 14.26742549510507"}}, "geometry": {"type": "Point", "coordinates": [-155.79712462362767, -67.40043788709097]}}, {"type": "Feature", "properties": {"norad_id": 41556, "name": "ZIYUAN 3-2 (ZY 3-2)", "group": "resource", "lat": 29.431410815754745, "lon": 50.539962272724814, "alt_km": 504.0875399387505, "timestamp": "2025-12-06T11:28:10.686544+00:00", "meta": {"OBJECT_NAME": "ZIYUAN 3-2 (ZY 3-2)", "OBJECT_ID": "2016-033A", "EPOCH": "2025-12-05T22:42:39.840480", "MEAN_MOTION": 15.21354828, "ECCENTRICITY": 0.00123789, "INCLINATION": 97.4056, "RA_OF_ASC_NODE": 54.2254, "ARG_OF_PERICENTER": 275.6589, "MEAN_ANOMALY": 84.3235, "EPHEMERIS_TYPE": 0, "CLASSIFICATION_TYPE": "U", "NORAD_CAT_ID": 41556, "ELEMENT_SET_NO": 999, "REV_AT_EPOCH": 52860, "BSTAR": 0.0005160262, "MEAN_MOTION_DOT": 0.00011524, "MEAN_MOTION_DDOT": 0}, "tle": {"line1": "1 41556U 16033A   25339.94629445  .00011524  00000+0  51603-3 0  9999", "line2": "2 41556  97.4056  54.2254 0012378 275.6589  84.3235 15.21354828528604"}}, "geometry": {"type": "Point", "coordinates": [50.539962272724814, 29.431410815754745]}}, {"type": "Feature", "properties": {"norad_id": 41599, "name": "CARTOSAT-2C", "group": "resource", "lat": 22.32369083889794, "lon": 34.7012769383489, "alt_km": 504.3791600606528, "timestamp": "2025-12-06T11:28:10.686555+00:00", "meta": {"OBJECT_NAME": "CARTOSAT-2C", "OBJECT_ID": "2016-040A", "EPOCH": "2025-12-05T22:43:28.339392", "MEAN_MOTION": 15.19193292, "ECCENTRICITY": 0.00110329, "INCLINATION": 97.4775, "RA_OF_ASC_NODE": 37.2672, "ARG_OF_PERICENTER": 85.762, "MEAN_ANOMALY": 274.4875, "EPHEMERIS_TYPE": 0, "CLASSIFICATION_TYPE": "U", "NORAD_CAT_ID": 41599, "ELEMENT_SET_NO": 999, "REV_AT_EPOCH": 52437, "BSTAR": 0.00037075467, "MEAN_MOTION_DOT": 7.747e-05, "MEAN_MOTION_DDOT": 0}, "tle": {"line1": "1 41599U 16040A   25339.94685578  .00007747  00000+0  37075-3 0  9992", "line2": "2 41599  97.4775  37.2672 0011032  85.7620 274.4875 15.19193292524371"}}, "geometry": {"type": "Point", "coordinates": [34.7012769383489, 22.32369083889794]}}, {"type": "Feature", "properties": {"norad_id": 41601, "name": "SKYSAT-C1", "group": "resource", "lat": 39.68429443386105, "lon": -156.31720612476573, "alt_km": 466.3213166299802, "timestamp": "2025-12-06T11:28:10.686566+00:00", "meta": {"OBJECT_NAME": "SKYSAT-C1", "OBJECT_ID": "2016-040C", "EPOCH": "2025-12-05T16:03:19.185120", "MEAN_MOTION": 15.32398413, "ECCENTRICITY": 0.00030875, "INCLINATION": 96.9827, "RA_OF_ASC_NODE": 17.0826, "ARG_OF_PERICENTER": 33.3977, "MEAN_ANOMALY": 326.746, "EPHEMERIS_TYPE": 0, "CLASSIFICATION_TYPE": "U", "NORAD_CAT_ID": 41601, "ELEMENT_SET_NO": 999, "REV_AT_EPOCH": 52819, "BSTAR": 0.00049721158, "MEAN_MOTION_DOT": 0.00015498, "MEAN_MOTION_DDOT": 0}, "tle": {"line1": "1 41601U 16040C   25339.66897205  .00015498  00000+0  49721-3 0  9990", "line2": "2 41601  96.9827  17.0826 0003087  33.3977 326.7460 15.32398413528191"}}, "geometry": {"type": "Point", "coordinates": [-156.31720612476573, 39.68429443386105]}}, {"type": "Feature", "properties": {"norad_id": 41603, "name": "LAPAN-A3", "group": "resource", "lat": -53.77598444899346, "lon": -11.881618108358712, "alt_km": 474.00218821778526, "timestamp": "2025-12-06T11:28:10.686576+00:00", "meta": {"OBJECT_NAME": "LAPAN-A3", "OBJECT_ID": "2016-040E", "EPOCH": "2025-12-05T23:09:40.497120", "MEAN_MOTION": 15.31469563, "ECCENTRICITY": 0.00105049, "INCLINATION": 97.1421, "RA_OF_ASC_NODE": 337.7681, "ARG_OF_PERICENTER": 359.2002, "MEAN_ANOMALY": 0.9222, "EPHEMERIS_TYPE": 0, "CLASSIFICATION_TYPE": "U", "NORAD_CAT_ID": 41603, "ELEMENT_SET_NO": 999, "REV_AT_EPOCH": 52522, "BSTAR": 0.00020964966, "MEAN_MOTION_DOT": 6.307e-05, "MEAN_MOTION_DDOT": 0}, "tle": {"line1": "1 41603U 16040E   25339.96505205  .00006307  00000+0  20965-3 0  9999", "line2": "2 41603  97.1421 337.7681 0010504 359.2002   0.9222 15.31469563525220"}}, "geometry": {"type": "Point", "coordinates": [-11.881618108358712, -53.77598444899346]}}, {"type": "Feature", "properties": {"norad_id": 41604, "name": "BIROS", "group": "resource", "lat": -69.82792434990547, "lon": 31.412525517643243, "alt_km": 318.83039419258057, "timestamp": "2025-12-06T11:28:10.686586+00:00", "meta": {"OBJECT_NAME": "BIROS", "OBJECT_ID": "2016-040F", "EPOCH": "2025-12-05T14:34:55.194528", "MEAN_MOTION": 15.86794825, "ECCENTRICITY": 0.00029431, "INCLINATION": 97.0681, "RA_OF_ASC_NODE": 10.7706, "ARG_OF_PERICENTER": 163.1234, "MEAN_ANOMALY": 197.0136, "EPHEMERIS_TYPE": 0, "CLASSIFICATION_TYPE": "U", "NORAD_CAT_ID": 41604, "ELEMENT_SET_NO": 999, "REV_AT_EPOCH": 52759, "BSTAR": 0.0007938222, "MEAN_MOTION_DOT": 0.00206086, "MEAN_MOTION_DDOT": 0}, "tle": {"line1": "1 41604U 16040F   25339.60758327  .00206086  00000+0  79382-3 0  9999", "line2": "2 41604  97.0681  10.7706 0002943 163.1234 197.0136 15.86794825527597"}}, "geometry": {"type": "Point", "coordinates": [31.412525517643243, -69.82792434990547]}}, {"type": "Feature", "properties": {"norad_id": 41727, "name": "GAOFEN-3", "group": "resource", "lat": -66.04365348437622, "lon": 5.593919917012061, "alt_km": 759.2231804472185, "timestamp": "2025-12-06T11:28:10.686597+00:00", "meta": {"OBJECT_NAME": "GAOFEN-3", "OBJECT_ID": "2016-049A", "EPOCH": "2025-12-05T22:27:41.382432", "MEAN_MOTION": 14.4221121, "ECCENTRICITY": 0.00015352, "INCLINATION": 98.404, "RA_OF_ASC_NODE": 345.626, "ARG_OF_PERICENTER": 71.396, "MEAN_ANOMALY": 288.7397, "EPHEMERIS_TYPE": 0, "CLASSIFICATION_TYPE": "U", "NORAD_CAT_ID": 41727, "ELEMENT_SET_NO": 999, "REV_AT_EPOCH": 49079, "BSTAR": 6.7946815e-05, "MEAN_MOTION_DOT": 1.8e-06, "MEAN_MOTION_DDOT": 0}, "tle": {"line1": "1 41727U 16049A   25339.93589563  .00000180  00000+0  67947-4 0  9996", "line2": "2 41727  98.4040 345.6260 0001535  71.3960 288.7397 14.42211210490795"}}, "geometry": {"type": "Point", "coordinates": [5.593919917012061, -66.04365348437622]}}, {"type": "Feature", "properties": {"norad_id": 41771, "name": "SKYSAT-C4", "group": "resource", "lat": -38.52825001645892, "lon": -179.59207785903672, "alt_km": 446.8235316615892, "timestamp": "2025-12-06T11:28:10.686607+00:00", "meta": {"OBJECT_NAME": "SKYSAT-C4", "OBJECT_ID": "2016-058B", "EPOCH": "2025-12-05T23:37:17.451264", "MEAN_MOTION": 15.41963061, "ECCENTRICITY": 8.885e-05, "INCLINATION": 96.9373, "RA_OF_ASC_NODE": 5.502, "ARG_OF_PERICENTER": 128.1343, "MEAN_ANOMALY": 231.9985, "EPHEMERIS_TYPE": 0, "CLASSIFICATION_TYPE": "U", "NORAD_CAT_ID": 41771, "ELEMENT_SET_NO": 999, "REV_AT_EPOCH": 51563, "BSTAR": 0.00050439761, "MEAN_MOTION_DOT": 0.00021425, "MEAN_MOTION_DDOT": 0}, "tle": {"line1": "1 41771U 16058B   25339.98422976  .00021425  00000+0  50440-3 0  9998", "line2": "2 41771  96.9373   5.5020 0000888 128.1343 231.9985 15.41963061515630"}}, "geometry": {"type": "Point", "coordinates": [-179.59207785903672, -38.52825001645892]}}, {"type": "Feature", "properties": {"norad_id": 41772, "name": "SKYSAT-C5", "group": "resource", "lat": -71.89379360075647, "lon": 46.80495164779857, "alt_km": 468.53128694273073, "timestamp": "2025-12-06T11:28:10.686618+00:00", "meta": {"OBJECT_NAME": "SKYSAT-C5", "OBJECT_ID": "2016-058C", "EPOCH": "2025-12-05T15:27:21.064320", "MEAN_MOTION": 15.35460694, "ECCENTRICITY": 0.00025778, "INCLINATION": 97.0752, "RA_OF_ASC_NODE": 23.6787, "ARG_OF_PERICENTER": 120.5249, "MEAN_ANOMALY": 239.6251, "EPHEMERIS_TYPE": 0, "CLASSIFICATION_TYPE": "U", "NORAD_CAT_ID": 41772, "ELEMENT_SET_NO": 999, "REV_AT_EPOCH": 51407, "BSTAR": 0.00049911743, "MEAN_MOTION_DOT": 0.0001714, "MEAN_MOTION_DDOT": 0}, "tle": {"line1": "1 41772U 16058C   25339.64399380  .00017140  00000+0  49912-3 0  9995", "line2": "2 41772  97.0752  23.6787 0002577 120.5249 239.6251 15.35460694514078"}}, "geometry": {"type": "Point", "coordinates": [46.80495164779857, -71.89379360075647]}}, {"type": "Feature", "properties": {"norad_id": 41773, "name": "SKYSAT-C2", "group": "resource", "lat": -73.35138971026397, "lon": 160.87571587530266, "alt_km": 465.17684958900645, "timestamp": "2025-12-06T11:28:10.686628+00:00", "meta": {"OBJECT_NAME": "SKYSAT-C2", "OBJECT_ID": "2016-058D", "EPOCH": "2025-12-05T23:25:37.371072", "MEAN_MOTION": 15.37042678, "ECCENTRICITY": 0.00048853, "INCLINATION": 97.0361, "RA_OF_ASC_NODE": 4.7907, "ARG_OF_PERICENTER": 51.6412, "MEAN_ANOMALY": 308.5272, "EPHEMERIS_TYPE": 0, "CLASSIFICATION_TYPE": "U", "NORAD_CAT_ID": 41773, "ELEMENT_SET_NO": 999, "REV_AT_EPOCH": 51532, "BSTAR": 0.00046506823, "MEAN_MOTION_DOT": 0.00016802, "MEAN_MOTION_DDOT": 0}, "tle": {"line1": "1 41773U 16058D   25339.97612698  .00016802  00000+0  46507-3 0  9993", "line2": "2 41773  97.0361   4.7907 0004885  51.6412 308.5272 15.37042678515327"}}, "geometry": {"type": "Point", "coordinates": [160.87571587530266, -73.35138971026397]}}]}